GLOBALSTAR M057         
1 25943U 99058A   25001.55453847 -.00000061  00000+0  28713-3 0  9994
2 25943  51.9983 101.1001 0002646  55.8304 304.2796 12.24806036146517
GLOBALSTAR M059         
1 25944U 99058B   25001.81949905 -.00000116  00000+0 -37060-3 0  9996
2 25944  52.0033 297.2503 0000866  32.4258 343.3458 11.99972599554073
GLOBALSTAR M056         
1 25945U 99058C   25001.60606963 -.00000049  00000+0  44818-3 0  9991
2 25945  51.9980 304.0617 0000325 207.6868 324.1715 12.04775686142542
GLOBALSTAR M031         
1 25946U 99058D   25001.98332094  .00000086  00000+0  17882-2 0  9994
2 25946  51.9927 205.3139 0001371 147.4875   2.7599 12.16026347144320
GLOBALSTAR M039         
1 25961U 99062A   25001.48988639 -.00000018  00000+0  47837-3 0  9993
2 25961  51.9859  56.4399 0002227 345.4257  14.6545 12.62314443159168
GLOBALSTAR M034         
1 25962U 99062B   25001.77986852  .00000078  00000+0  25340-2 0  9990
2 25962  51.9879  83.9491 0014626  89.2927  64.4378 11.79439188118750
GLOBALSTAR M029         
1 25963U 99062C   25001.92215590 -.00000063  00000+0  28555-3 0  9999
2 25963  51.9769 185.1507 0003423 131.9092 336.4285 11.99890030149160
GLOBALSTAR M061         
1 25964U 99062D   25001.89057101 -.00000010  00000+0  11606-2 0  9998
2 25964  51.9790 265.4920 0006744  18.4537  27.5698 11.76769875101608
